STARLINK-1637_new
1 16133C 20057S   21326.03664153  .00000779  00000-0  52221-4 0  3266
2 16133  53.0516 118.5776 0001574  87.5260 303.6557 15.06387570    11
STARLINK-1637_old
1 26133C 20057S   21325.15160362  .00001437  00000-0  96225-4 0  3254
2 26133  53.0510 122.5509 0001695  87.9642 180.9343 15.06405618    19
